{
  "type": "FeatureCollection",
  "name": "النجف — المدينة القديمة",
  "crs": {
    "type": "name",
    "properties": {
      "name": "urn:ogc:def:crs:EPSG::4326"
    }
  },
  "features": [
    {
      "type": "Feature",
      "properties": {
        "kind": "highway",
        "name": "",
        "highway": "residential",
        "source": "OpenStreetMap"
      },
      "geometry": {
        "type": "LineString",
        "coordinates": [
          [
            44.3326633,
            32.0020585
          ],
          [
            44.3324316,
            32.0025629
          ]
        ]
      }
    },
    {
      "type": "Feature",
      "properties": {
        "kind": "highway",
        "name": "",
        "highway": "residential",
        "source": "OpenStreetMap"
      },
      "geometry": {
        "type": "LineString",
        "coordinates": [
          [
            44.3328031,
            32.0017291
          ],
          [
            44.3326633,
            32.0020585
          ]
        ]
      }
    },
    {
      "type": "Feature",
      "properties": {
        "kind": "highway",
        "name": "",
        "highway": "residential",
        "source": "OpenStreetMap"
      },
      "geometry": {
        "type": "LineString",
        "coordinates": [
          [
            44.3324316,
            32.0025629
          ],
          [
            44.3330667,
            32.0028422
          ],
          [
            44.3354529,
            32.0039306
          ],
          [
            44.3369894,
            32.0045818
          ],
          [
            44.3369914,
            32.0045827
          ],
          [
            44.3375317,
            32.0048236
          ],
          [
            44.3378282,
            32.0049558
          ],
          [
            44.3379999,
            32.0050922
          ],
          [
            44.3381179,
            32.0052788
          ],
          [
            44.3381715,
            32.0055017
          ]
        ]
      }
    },
    {
      "type": "Feature",
      "properties": {
        "kind": "highway",
        "name": "",
        "highway": "residential",
        "source": "OpenStreetMap"
      },
      "geometry": {
        "type": "LineString",
        "coordinates": [
          [
            44.3340737,
            32.0012114
          ],
          [
            44.335683,
            32.0018221
          ],
          [
            44.3364243,
            32.0021034
          ],
          [
            44.3376841,
            32.0025776
          ],
          [
            44.3383853,
            32.0028415
          ],
          [
            44.3390934,
            32.0031081
          ],
          [
            44.3398584,
            32.003396
          ],
          [
            44.3405533,
            32.0036576
          ],
          [
            44.3412948,
            32.0039367
          ],
          [
            44.3420029,
            32.0042032
          ],
          [
            44.342416,
            32.0043796
          ],
          [
            44.3425093,
            32.0043958
          ]
        ]
      }
    },
    {
      "type": "Feature",
      "properties": {
        "kind": "highway",
        "name": "",
        "highway": "residential",
        "source": "OpenStreetMap"
      },
      "geometry": {
        "type": "LineString",
        "coordinates": [
          [
            44.3343258,
            32.0005988
          ],
          [
            44.3359833,
            32.001251
          ]
        ]
      }
    },
    {
      "type": "Feature",
      "properties": {
        "kind": "highway",
        "name": "",
        "highway": "residential",
        "source": "OpenStreetMap"
      },
      "geometry": {
        "type": "LineString",
        "coordinates": [
          [
            44.3332606,
            32.000949
          ],
          [
            44.3337359,
            31.9999692
          ]
        ]
      }
    },
    {
      "type": "Feature",
      "properties": {
        "kind": "highway",
        "name": "",
        "highway": "residential",
        "source": "OpenStreetMap"
      },
      "geometry": {
        "type": "LineString",
        "coordinates": [
          [
            44.3325502,
            32.0056331
          ],
          [
            44.3325269,
            32.0052679
          ],
          [
            44.3324775,
            32.0044924
          ],
          [
            44.3324348,
            32.0041263
          ],
          [
            44.3325824,
            32.0037726
          ],
          [
            44.3328077,
            32.0035087
          ],
          [
            44.333151,
            32.0032631
          ]
        ]
      }
    },
    {
      "type": "Feature",
      "properties": {
        "kind": "highway",
        "name": "شارع الكوفة",
        "highway": "trunk",
        "source": "OpenStreetMap"
      },
      "geometry": {
        "type": "LineString",
        "coordinates": [
          [
            44.3466062,
            32.0068391
          ],
          [
            44.345535,
            32.0064481
          ],
          [
            44.3454144,
            32.0064055
          ],
          [
            44.3452921,
            32.0063665
          ],
          [
            44.3451682,
            32.0063314
          ],
          [
            44.3450429,
            32.0062973
          ],
          [
            44.3443672,
            32.0060704
          ],
          [
            44.342219,
            32.0052741
          ],
          [
            44.3387718,
            32.0040244
          ],
          [
            44.3369149,
            32.0033633
          ],
          [
            44.3364961,
            32.0031967
          ],
          [
            44.3349707,
            32.0025951
          ],
          [
            44.3335234,
            32.0019398
          ]
        ]
      }
    },
    {
      "type": "Feature",
      "properties": {
        "kind": "highway",
        "name": "",
        "highway": "trunk_link",
        "source": "OpenStreetMap"
      },
      "geometry": {
        "type": "LineString",
        "coordinates": [
          [
            44.332358,
            32.0013254
          ],
          [
            44.3324439,
            32.0013699
          ],
          [
            44.3324916,
            32.0013977
          ],
          [
            44.3325336,
            32.0014396
          ],
          [
            44.3325643,
            32.0014879
          ],
          [
            44.3325696,
            32.001522
          ],
          [
            44.3325629,
            32.0015559
          ],
          [
            44.3325448,
            32.0015866
          ],
          [
            44.3325169,
            32.0016116
          ],
          [
            44.3324817,
            32.0016285
          ],
          [
            44.3324421,
            32.001636
          ],
          [
            44.3323646,
            32.0016418
          ],
          [
            44.332297,
            32.0016351
          ],
          [
            44.3321905,
            32.0016181
          ],
          [
            44.3320643,
            32.0015803
          ]
        ]
      }
    },
    {
      "type": "Feature",
      "properties": {
        "kind": "highway",
        "name": "مجسرات ثورة العشرين",
        "highway": "trunk_link",
        "source": "OpenStreetMap"
      },
      "geometry": {
        "type": "LineString",
        "coordinates": [
          [
            44.3309468,
            32.0009415
          ],
          [
            44.3309778,
            32.0009051
          ],
          [
            44.3310163,
            32.000875
          ],
          [
            44.3310567,
            32.0008515
          ],
          [
            44.3311014,
            32.0008298
          ],
          [
            44.3311598,
            32.0008028
          ],
          [
            44.3312129,
            32.0007794
          ],
          [
            44.331269,
            32.0007619
          ],
          [
            44.3313299,
            32.0007463
          ],
          [
            44.3313861,
            32.0007382
          ],
          [
            44.3314471,
            32.0007342
          ],
          [
            44.3315064,
            32.0007353
          ],
          [
            44.3315694,
            32.0007424
          ],
          [
            44.3316296,
            32.0007575
          ],
          [
            44.3316838,
            32.0007774
          ],
          [
            44.3317531,
            32.0008127
          ],
          [
            44.3327541,
            32.0013803
          ]
        ]
      }
    },
    {
      "type": "Feature",
      "properties": {
        "kind": "highway",
        "name": "شارع الكوفة",
        "highway": "trunk",
        "source": "OpenStreetMap"
      },
      "geometry": {
        "type": "LineString",
        "coordinates": [
          [
            44.3335799,
            32.001852
          ],
          [
            44.3350275,
            32.0024947
          ],
          [
            44.3369484,
            32.0032575
          ],
          [
            44.3387975,
            32.0039195
          ],
          [
            44.3420742,
            32.0050991
          ],
          [
            44.3436985,
            32.0056756
          ],
          [
            44.3444216,
            32.0059423
          ],
          [
            44.3451117,
            32.0061968
          ],
          [
            44.3452255,
            32.0062502
          ],
          [
            44.3453408,
            32.0063011
          ],
          [
            44.3454575,
            32.0063497
          ],
          [
            44.3455756,
            32.0063957
          ],
          [
            44.3466362,
            32.0067672
          ]
        ]
      }
    },
    {
      "type": "Feature",
      "properties": {
        "kind": "highway",
        "name": "",
        "highway": "trunk",
        "source": "OpenStreetMap"
      },
      "geometry": {
        "type": "LineString",
        "coordinates": [
          [
            44.3335234,
            32.0019398
          ],
          [
            44.3331723,
            32.0017713
          ],
          [
            44.3331147,
            32.0017487
          ],
          [
            44.3330544,
            32.0017321
          ],
          [
            44.3329922,
            32.0017217
          ],
          [
            44.332929,
            32.0017178
          ],
          [
            44.3328656,
            32.0017202
          ],
          [
            44.3328031,
            32.0017291
          ],
          [
            44.3327298,
            32.0017402
          ],
          [
            44.3326556,
            32.0017456
          ],
          [
            44.3325812,
            32.0017454
          ],
          [
            44.3325071,
            32.0017395
          ],
          [
            44.3324339,
            32.0017279
          ],
          [
            44.3323622,
            32.0017108
          ],
          [
            44.3320643,
            32.0015803
          ],
          [
            44.3313325,
            32.0012942
          ],
          [
            44.3306932,
            32.0010071
          ],
          [
            44.3306641,
            32.0009941
          ],
          [
            44.330094,
            32.0007557
          ],
          [
            44.3289621,
            32.0002842
          ],
          [
            44.3285363,
            32.0001139
          ],
          [
            44.3270394,
            31.9994759
          ],
          [
            44.326912,
            31.9994174
          ],
          [
            44.326611,
            31.9992765
          ],
          [
            44.3262428,
            31.9991093
          ],
          [
            44.3258167,
            31.9989159
          ],
          [
            44.3248291,
            31.9984795
          ],
          [
            44.3245874,
            31.9983642
          ],
          [
            44.3244385,
            31.9982866
          ],
          [
            44.324252,
            31.9981915
          ],
          [
            44.3242131,
            31.9981658
          ],
          [
            44.3241922,
            31.9981376
          ],
          [
            44.3241813,
            31.9980969
          ],
          [
            44.3241874,
            31.9980633
          ],
          [
            44.324216,
            31.9980326
          ],
          [
            44.3242396,
            31.998018
          ],
          [
            44.3242789,
            31.9980115
          ],
          [
            44.3243156,
            31.998016
          ],
          [
            44.324796,
            31.9982192
          ],
          [
            44.3262234,
            31.9988386
          ],
          [
            44.3272758,
            31.9992852
          ],
          [
            44.3286136,
            31.9998616
          ],
          [
            44.3286517,
            31.9998771
          ],
          [
            44.3291202,
            32.0000682
          ],
          [
            44.3298139,
            32.0003639
          ],
          [
            44.3304163,
            32.0006199
          ],
          [
            44.3306288,
            32.0007056
          ],
          [
            44.3314856,
            32.0010056
          ],
          [
            44.3320717,
            32.0012117
          ],
          [
            44.332358,
            32.0013254
          ],
          [
            44.3326734,
            32.0014514
          ],
          [
            44.332857,
            32.0015331
          ],
          [
            44.3335307,
            32.001828
          ],
          [
            44.3335799,
            32.001852
          ]
        ]
      }
    },
    {
      "type": "Feature",
      "properties": {
        "kind": "highway",
        "name": "",
        "highway": "residential",
        "source": "OpenStreetMap"
      },
      "geometry": {
        "type": "LineString",
        "coordinates": [
          [
            44.3349642,
            31.9994099
          ],
          [
            44.3346349,
            32.0000195
          ],
          [
            44.3343258,
            32.0005988
          ],
          [
            44.3340522,
            32.0011113
          ],
          [
            44.3340737,
            32.0012114
          ]
        ]
      }
    },
    {
      "type": "Feature",
      "properties": {
        "kind": "highway",
        "name": "",
        "highway": "residential",
        "source": "OpenStreetMap"
      },
      "geometry": {
        "type": "LineString",
        "coordinates": [
          [
            44.3326633,
            32.0020585
          ],
          [
            44.3325956,
            32.0019389
          ],
          [
            44.3325041,
            32.0018378
          ],
          [
            44.3323622,
            32.0017108
          ]
        ]
      }
    },
    {
      "type": "Feature",
      "properties": {
        "kind": "highway",
        "name": "",
        "highway": "residential",
        "source": "OpenStreetMap"
      },
      "geometry": {
        "type": "LineString",
        "coordinates": [
          [
            44.3338913,
            32.0040501
          ],
          [
            44.333369,
            32.0037954
          ],
          [
            44.3332735,
            32.0036425
          ],
          [
            44.333151,
            32.0032631
          ],
          [
            44.3330667,
            32.0028422
          ]
        ]
      }
    },
    {
      "type": "Feature",
      "properties": {
        "kind": "highway",
        "name": "",
        "highway": "secondary",
        "source": "OpenStreetMap"
      },
      "geometry": {
        "type": "LineString",
        "coordinates": [
          [
            44.3455071,
            32.006524
          ],
          [
            44.3454052,
            32.0065202
          ],
          [
            44.3453043,
            32.0065075
          ],
          [
            44.3452461,
            32.0064948
          ],
          [
            44.3452054,
            32.006486
          ],
          [
            44.3451098,
            32.006456
          ],
          [
            44.344298,
            32.0061663
          ],
          [
            44.3442243,
            32.0061345
          ],
          [
            44.3439301,
            32.0060305
          ],
          [
            44.3433212,
            32.0058065
          ],
          [
            44.3421649,
            32.0053811
          ],
          [
            44.3419541,
            32.0053036
          ],
          [
            44.3407194,
            32.0048404
          ],
          [
            44.3388772,
            32.0041687
          ],
          [
            44.3370352,
            32.0035046
          ],
          [
            44.3362144,
            32.0032005
          ],
          [
            44.3360957,
            32.0031565
          ],
          [
            44.3359121,
            32.0030858
          ],
          [
            44.3352494,
            32.002806
          ],
          [
            44.3351706,
            32.0027625
          ],
          [
            44.3350974,
            32.0027126
          ],
          [
            44.3350305,
            32.0026566
          ],
          [
            44.3349707,
            32.0025951
          ]
        ]
      }
    },
    {
      "type": "Feature",
      "properties": {
        "kind": "highway",
        "name": "",
        "highway": "trunk_link",
        "source": "OpenStreetMap"
      },
      "geometry": {
        "type": "LineString",
        "coordinates": [
          [
            44.3314612,
            32.0003247
          ],
          [
            44.331508,
            32.0004424
          ],
          [
            44.3315344,
            32.0005031
          ],
          [
            44.331571,
            32.0005597
          ],
          [
            44.3316172,
            32.0006111
          ],
          [
            44.3316719,
            32.0006562
          ],
          [
            44.3317338,
            32.0006938
          ],
          [
            44.3319743,
            32.0007962
          ],
          [
            44.3328222,
            32.0011749
          ],
          [
            44.3328652,
            32.0011924
          ],
          [
            44.3329122,
            32.0011991
          ],
          [
            44.3329595,
            32.0011942
          ],
          [
            44.3330033,
            32.0011784
          ],
          [
            44.3330402,
            32.0011527
          ],
          [
            44.3330629,
            32.0011258
          ],
          [
            44.3331088,
            32.0010678
          ],
          [
            44.3331757,
            32.0009974
          ],
          [
            44.3332606,
            32.000949
          ]
        ]
      }
    },
    {
      "type": "Feature",
      "properties": {
        "kind": "building",
        "name": "",
        "building": "yes",
        "source": "OpenStreetMap"
      },
      "geometry": {
        "type": "Polygon",
        "coordinates": [
          [
            [
              44.3326428,
              32.0002219
            ],
            [
              44.332311,
              32.0003268
            ],
            [
              44.3324528,
              32.0005813
            ],
            [
              44.3327891,
              32.0004585
            ],
            [
              44.3326428,
              32.0002219
            ]
          ]
        ]
      }
    },
    {
      "type": "Feature",
      "properties": {
        "kind": "highway",
        "name": "",
        "highway": "secondary",
        "source": "OpenStreetMap"
      },
      "geometry": {
        "type": "LineString",
        "coordinates": [
          [
            44.3350275,
            32.0024947
          ],
          [
            44.3350771,
            32.0024994
          ],
          [
            44.3351424,
            32.0025051
          ],
          [
            44.3352067,
            32.0025162
          ],
          [
            44.3352694,
            32.0025327
          ],
          [
            44.3360238,
            32.0028423
          ],
          [
            44.3371529,
            32.00324
          ],
          [
            44.3380027,
            32.0035393
          ],
          [
            44.3388409,
            32.0038429
          ],
          [
            44.3416636,
            32.004837
          ],
          [
            44.3419096,
            32.0049254
          ],
          [
            44.342681,
            32.0052024
          ],
          [
            44.3435619,
            32.0055063
          ],
          [
            44.3440913,
            32.0056889
          ],
          [
            44.3451671,
            32.0060915
          ],
          [
            44.3452642,
            32.0061295
          ],
          [
            44.3453596,
            32.0061704
          ],
          [
            44.3454533,
            32.0062141
          ],
          [
            44.3455452,
            32.0062605
          ],
          [
            44.345635,
            32.0063096
          ]
        ]
      }
    },
    {
      "type": "Feature",
      "properties": {
        "kind": "building",
        "name": "",
        "building": "yes",
        "source": "OpenStreetMap"
      },
      "geometry": {
        "type": "Polygon",
        "coordinates": [
          [
            [
              44.3326866,
              32.0031285
            ],
            [
              44.3325166,
              32.0030652
            ],
            [
              44.3325716,
              32.0029589
            ],
            [
              44.3327416,
              32.0030221
            ],
            [
              44.3326866,
              32.0031285
            ]
          ]
        ]
      }
    },
    {
      "type": "Feature",
      "properties": {
        "kind": "building",
        "name": "",
        "building": "yes",
        "source": "OpenStreetMap"
      },
      "geometry": {
        "type": "Polygon",
        "coordinates": [
          [
            [
              44.33505,
              32.0036716
            ],
            [
              44.3348652,
              32.0035909
            ],
            [
              44.3352616,
              32.0029387
            ],
            [
              44.3354462,
              32.0030194
            ],
            [
              44.33505,
              32.0036716
            ]
          ]
        ]
      }
    },
    {
      "type": "Feature",
      "properties": {
        "kind": "building",
        "name": "",
        "building": "yes",
        "source": "OpenStreetMap"
      },
      "geometry": {
        "type": "Polygon",
        "coordinates": [
          [
            [
              44.3348656,
              32.0031791
            ],
            [
              44.3346814,
              32.0030969
            ],
            [
              44.3349137,
              32.0027224
            ],
            [
              44.3350979,
              32.0028046
            ],
            [
              44.3348656,
              32.0031791
            ]
          ]
        ]
      }
    },
    {
      "type": "Feature",
      "properties": {
        "kind": "building",
        "name": "",
        "building": "yes",
        "source": "OpenStreetMap"
      },
      "geometry": {
        "type": "Polygon",
        "coordinates": [
          [
            [
              44.3354109,
              32.0032615
            ],
            [
              44.3356395,
              32.0033697
            ],
            [
              44.3355503,
              32.0035053
            ],
            [
              44.3353217,
              32.003397
            ],
            [
              44.3354109,
              32.0032615
            ]
          ]
        ]
      }
    },
    {
      "type": "Feature",
      "properties": {
        "kind": "building",
        "name": "",
        "building": "yes",
        "source": "OpenStreetMap"
      },
      "geometry": {
        "type": "Polygon",
        "coordinates": [
          [
            [
              44.3353704,
              32.002436
            ],
            [
              44.3355588,
              32.0025218
            ],
            [
              44.3355953,
              32.002481
            ],
            [
              44.3356588,
              32.0024587
            ],
            [
              44.3357034,
              32.0024614
            ],
            [
              44.3357337,
              32.0024718
            ],
            [
              44.335774,
              32.0025031
            ],
            [
              44.3357913,
              32.0025341
            ],
            [
              44.3357956,
              32.0025719
            ],
            [
              44.3357837,
              32.0026086
            ],
            [
              44.335989,
              32.0026789
            ],
            [
              44.3362536,
              32.0021561
            ],
            [
              44.3356481,
              32.001937
            ],
            [
              44.3353704,
              32.002436
            ]
          ]
        ]
      }
    },
    {
      "type": "Feature",
      "properties": {
        "kind": "building",
        "name": "",
        "building": "yes",
        "source": "OpenStreetMap"
      },
      "geometry": {
        "type": "Polygon",
        "coordinates": [
          [
            [
              44.3353662,
              32.0016509
            ],
            [
              44.3355998,
              32.0017389
            ],
            [
              44.3356847,
              32.0015829
            ],
            [
              44.3354435,
              32.0014962
            ],
            [
              44.3353662,
              32.0016509
            ]
          ]
        ]
      }
    },
    {
      "type": "Feature",
      "properties": {
        "kind": "building",
        "name": "",
        "building": "yes",
        "source": "OpenStreetMap"
      },
      "geometry": {
        "type": "Polygon",
        "coordinates": [
          [
            [
              44.3354661,
              32.0014687
            ],
            [
              44.3355493,
              32.0014976
            ],
            [
              44.3355416,
              32.0015135
            ],
            [
              44.3355743,
              32.0015248
            ],
            [
              44.3355973,
              32.0014773
            ],
            [
              44.3356347,
              32.0014903
            ],
            [
              44.335644,
              32.0014713
            ],
            [
              44.3355191,
              32.0014278
            ],
            [
              44.3355251,
              32.0014155
            ],
            [
              44.3354966,
              32.0014056
            ],
            [
              44.3354661,
              32.0014687
            ]
          ]
        ]
      }
    },
    {
      "type": "Feature",
      "properties": {
        "kind": "building",
        "name": "",
        "building": "yes",
        "source": "OpenStreetMap"
      },
      "geometry": {
        "type": "Polygon",
        "coordinates": [
          [
            [
              44.3354772,
              32.0013822
            ],
            [
              44.3356753,
              32.0014584
            ],
            [
              44.3357199,
              32.0013751
            ],
            [
              44.3355218,
              32.0012989
            ],
            [
              44.3354772,
              32.0013822
            ]
          ]
        ]
      }
    },
    {
      "type": "Feature",
      "properties": {
        "kind": "building",
        "name": "",
        "building": "yes",
        "source": "OpenStreetMap"
      },
      "geometry": {
        "type": "Polygon",
        "coordinates": [
          [
            [
              44.3353909,
              32.0013392
            ],
            [
              44.3354361,
              32.0012537
            ],
            [
              44.3353173,
              32.0012085
            ],
            [
              44.3352721,
              32.001294
            ],
            [
              44.3353909,
              32.0013392
            ]
          ]
        ]
      }
    },
    {
      "type": "Feature",
      "properties": {
        "kind": "building",
        "name": "",
        "building": "yes",
        "source": "OpenStreetMap"
      },
      "geometry": {
        "type": "Polygon",
        "coordinates": [
          [
            [
              44.3354319,
              32.0012433
            ],
            [
              44.3354622,
              32.0011886
            ],
            [
              44.3353473,
              32.0011428
            ],
            [
              44.335317,
              32.0011976
            ],
            [
              44.3354319,
              32.0012433
            ]
          ]
        ]
      }
    },
    {
      "type": "Feature",
      "properties": {
        "kind": "building",
        "name": "",
        "building": "yes",
        "source": "OpenStreetMap"
      },
      "geometry": {
        "type": "Polygon",
        "coordinates": [
          [
            [
              44.3356006,
              32.0011228
            ],
            [
              44.3355657,
              32.0011956
            ],
            [
              44.3353678,
              32.0011275
            ],
            [
              44.3354028,
              32.0010546
            ],
            [
              44.3356006,
              32.0011228
            ]
          ]
        ]
      }
    },
    {
      "type": "Feature",
      "properties": {
        "kind": "highway",
        "name": "مجسرات ثورة العشرين",
        "highway": "trunk_link",
        "source": "OpenStreetMap"
      },
      "geometry": {
        "type": "LineString",
        "coordinates": [
          [
            44.3327541,
            32.0013803
          ],
          [
            44.333101,
            32.0015759
          ],
          [
            44.3332521,
            32.0016677
          ],
          [
            44.3333898,
            32.0017471
          ],
          [
            44.3335307,
            32.001828
          ]
        ]
      }
    },
    {
      "type": "Feature",
      "properties": {
        "kind": "highway",
        "name": "",
        "highway": "residential",
        "source": "OpenStreetMap"
      },
      "geometry": {
        "type": "LineString",
        "coordinates": [
          [
            44.3332606,
            32.000949
          ],
          [
            44.333033,
            32.001411
          ],
          [
            44.3330226,
            32.0014582
          ],
          [
            44.3330277,
            32.0014944
          ],
          [
            44.333051,
            32.0015337
          ],
          [
            44.333101,
            32.0015759
          ]
        ]
      }
    }
  ]
}