{
 "type": "FeatureCollection",
 "name": "كربلاء — حي شرق الحرم",
 "crs": {
  "type": "name",
  "properties": {
   "name": "urn:ogc:def:crs:EPSG::4326"
  }
 },
 "features": [
  {
   "type": "Feature",
   "properties": {
    "kind": "highway",
    "name": "",
    "highway": "trunk",
    "lanes": "",
    "surface": "asphalt",
    "source": "OpenStreetMap"
   },
   "geometry": {
    "type": "LineString",
    "coordinates": [
     [
      44.0389728,
      32.6212405
     ],
     [
      44.0390183,
      32.6211835
     ],
     [
      44.039068,
      32.6211367
     ],
     [
      44.0391132,
      32.6211031
     ],
     [
      44.0391624,
      32.6210737
     ],
     [
      44.0392149,
      32.6210488
     ],
     [
      44.0392703,
      32.6210286
     ],
     [
      44.0393279,
      32.6210135
     ],
     [
      44.039387,
      32.6210036
     ],
     [
      44.039447,
      32.6209989
     ],
     [
      44.0395114,
      32.6209998
     ],
     [
      44.0395752,
      32.6210068
     ]
    ]
   }
  },
  {
   "type": "Feature",
   "properties": {
    "kind": "highway",
    "name": "",
    "highway": "secondary",
    "lanes": "",
    "surface": "",
    "source": "OpenStreetMap"
   },
   "geometry": {
    "type": "LineString",
    "coordinates": [
     [
      44.0387826,
      32.6206495
     ],
     [
      44.0386545,
      32.6206856
     ],
     [
      44.0385286,
      32.6207271
     ],
     [
      44.0383955,
      32.620778
     ],
     [
      44.0382658,
      32.6208349
     ],
     [
      44.0380933,
      32.6209233
     ],
     [
      44.0379291,
      32.6210224
     ],
     [
      44.0377746,
      32.6211317
     ]
    ]
   }
  },
  {
   "type": "Feature",
   "properties": {
    "kind": "highway",
    "name": "",
    "highway": "residential",
    "lanes": "",
    "surface": "",
    "source": "OpenStreetMap"
   },
   "geometry": {
    "type": "LineString",
    "coordinates": [
     [
      44.0422808,
      32.618591
     ],
     [
      44.041994,
      32.61809
     ],
     [
      44.0413036,
      32.6169442
     ],
     [
      44.0411717,
      32.6168081
     ],
     [
      44.0411781,
      32.6167351
     ]
    ]
   }
  },
  {
   "type": "Feature",
   "properties": {
    "kind": "highway",
    "name": "",
    "highway": "living_street",
    "lanes": "",
    "surface": "",
    "source": "OpenStreetMap"
   },
   "geometry": {
    "type": "LineString",
    "coordinates": [
     [
      44.0397116,
      32.6177008
     ],
     [
      44.0389655,
      32.6179167
     ],
     [
      44.0385946,
      32.6180286
     ],
     [
      44.0383185,
      32.6181119
     ],
     [
      44.0378819,
      32.6182408
     ],
     [
      44.0373643,
      32.6183996
     ]
    ]
   }
  },
  {
   "type": "Feature",
   "properties": {
    "kind": "highway",
    "name": "",
    "highway": "footway",
    "lanes": "",
    "surface": "",
    "source": "OpenStreetMap"
   },
   "geometry": {
    "type": "LineString",
    "coordinates": [
     [
      44.0384087,
      32.6195573
     ],
     [
      44.0383073,
      32.6195584
     ],
     [
      44.0382406,
      32.6195659
     ],
     [
      44.0381759,
      32.6195814
     ],
     [
      44.0381217,
      32.619601
     ]
    ]
   }
  },
  {
   "type": "Feature",
   "properties": {
    "kind": "highway",
    "name": "",
    "highway": "footway",
    "lanes": "",
    "surface": "",
    "source": "OpenStreetMap"
   },
   "geometry": {
    "type": "LineString",
    "coordinates": [
     [
      44.0377117,
      32.6189506
     ],
     [
      44.0386697,
      32.6187475
     ]
    ]
   }
  },
  {
   "type": "Feature",
   "properties": {
    "kind": "highway",
    "name": "",
    "highway": "living_street",
    "lanes": "",
    "surface": "",
    "source": "OpenStreetMap"
   },
   "geometry": {
    "type": "LineString",
    "coordinates": [
     [
      44.039018,
      32.619221
     ],
     [
      44.0387882,
      32.6191948
     ],
     [
      44.0386586,
      32.6191844
     ],
     [
      44.0385049,
      32.6191807
     ],
     [
      44.0383498,
      32.6191985
     ],
     [
      44.0382055,
      32.6192231
     ],
     [
      44.0380572,
      32.6192511
     ],
     [
      44.037921,
      32.6192827
     ]
    ]
   }
  },
  {
   "type": "Feature",
   "properties": {
    "kind": "highway",
    "name": "",
    "highway": "living_street",
    "lanes": "",
    "surface": "",
    "source": "OpenStreetMap"
   },
   "geometry": {
    "type": "LineString",
    "coordinates": [
     [
      44.0401856,
      32.6187519
     ],
     [
      44.0400406,
      32.6188363
     ],
     [
      44.0398955,
      32.6189565
     ],
     [
      44.0397361,
      32.6191674
     ],
     [
      44.0395179,
      32.6194561
     ]
    ]
   }
  },
  {
   "type": "Feature",
   "properties": {
    "kind": "highway",
    "name": "",
    "highway": "residential",
    "lanes": "",
    "surface": "",
    "source": "OpenStreetMap"
   },
   "geometry": {
    "type": "LineString",
    "coordinates": [
     [
      44.0397314,
      32.6176308
     ],
     [
      44.0397116,
      32.6177008
     ],
     [
      44.0395879,
      32.6181376
     ],
     [
      44.0394271,
      32.6185321
     ],
     [
      44.0391915,
      32.6189288
     ],
     [
      44.039018,
      32.619221
     ]
    ]
   }
  },
  {
   "type": "Feature",
   "properties": {
    "kind": "highway",
    "name": "",
    "highway": "residential",
    "lanes": "",
    "surface": "",
    "source": "OpenStreetMap"
   },
   "geometry": {
    "type": "LineString",
    "coordinates": [
     [
      44.0414881,
      32.6178221
     ],
     [
      44.0399989,
      32.6181255
     ]
    ]
   }
  },
  {
   "type": "Feature",
   "properties": {
    "kind": "highway",
    "name": "",
    "highway": "residential",
    "lanes": "",
    "surface": "",
    "source": "OpenStreetMap"
   },
   "geometry": {
    "type": "LineString",
    "coordinates": [
     [
      44.0388773,
      32.6200048
     ],
     [
      44.0388215,
      32.6200807
     ],
     [
      44.0388064,
      32.6201036
     ],
     [
      44.0387773,
      32.6201706
     ],
     [
      44.0387641,
      32.6202209
     ]
    ]
   }
  },
  {
   "type": "Feature",
   "properties": {
    "kind": "highway",
    "name": "",
    "highway": "living_street",
    "lanes": "",
    "surface": "",
    "source": "OpenStreetMap"
   },
   "geometry": {
    "type": "LineString",
    "coordinates": [
     [
      44.0396534,
      32.6195978
     ],
     [
      44.0397816,
      32.6197557
     ],
     [
      44.0398556,
      32.619926
     ],
     [
      44.0398974,
      32.6200739
     ]
    ]
   }
  },
  {
   "type": "Feature",
   "properties": {
    "kind": "highway",
    "name": "",
    "highway": "living_street",
    "lanes": "",
    "surface": "",
    "source": "OpenStreetMap"
   },
   "geometry": {
    "type": "LineString",
    "coordinates": [
     [
      44.0385946,
      32.6180286
     ],
     [
      44.0385784,
      32.617934
     ],
     [
      44.0386123,
      32.617845
     ],
     [
      44.0387501,
      32.6176359
     ],
     [
      44.0389314,
      32.6174179
     ],
     [
      44.0390285,
      32.6173635
     ],
     [
      44.0390867,
      32.617331
     ],
     [
      44.0394611,
      32.6171134
     ]
    ]
   }
  },
  {
   "type": "Feature",
   "properties": {
    "kind": "highway",
    "name": "",
    "highway": "service",
    "lanes": "",
    "surface": "",
    "source": "OpenStreetMap"
   },
   "geometry": {
    "type": "LineString",
    "coordinates": [
     [
      44.0423266,
      32.6198264
     ],
     [
      44.0405488,
      32.6200942
     ]
    ]
   }
  },
  {
   "type": "Feature",
   "properties": {
    "kind": "highway",
    "name": "",
    "highway": "living_street",
    "lanes": "",
    "surface": "",
    "source": "OpenStreetMap"
   },
   "geometry": {
    "type": "LineString",
    "coordinates": [
     [
      44.0396534,
      32.6195978
     ],
     [
      44.0395179,
      32.6194561
     ]
    ]
   }
  },
  {
   "type": "Feature",
   "properties": {
    "kind": "highway",
    "name": "",
    "highway": "residential",
    "lanes": "",
    "surface": "",
    "source": "OpenStreetMap"
   },
   "geometry": {
    "type": "LineString",
    "coordinates": [
     [
      44.0382005,
      32.620388
     ],
     [
      44.0380694,
      32.620412
     ],
     [
      44.0373197,
      32.6205571
     ],
     [
      44.036704,
      32.6206763
     ],
     [
      44.036109,
      32.6207915
     ],
     [
      44.0359458,
      32.6208231
     ],
     [
      44.0354518,
      32.6209188
     ]
    ]
   }
  },
  {
   "type": "Feature",
   "properties": {
    "kind": "highway",
    "name": "شارع باب بغداد",
    "highway": "tertiary",
    "lanes": "2",
    "surface": "asphalt",
    "source": "OpenStreetMap"
   },
   "geometry": {
    "type": "LineString",
    "coordinates": [
     [
      44.0352224,
      32.617201
     ],
     [
      44.0353061,
      32.6172915
     ],
     [
      44.035318,
      32.6173044
     ],
     [
      44.0355338,
      32.6175378
     ],
     [
      44.0356909,
      32.6177077
     ],
     [
      44.0358572,
      32.6178818
     ],
     [
      44.0360561,
      32.6181026
     ],
     [
      44.0362723,
      32.6183364
     ],
     [
      44.0364771,
      32.6185579
     ],
     [
      44.0365873,
      32.6186771
     ],
     [
      44.0371611,
      32.6192976
     ],
     [
      44.0374484,
      32.619599
     ],
     [
      44.0376849,
      32.6198471
     ],
     [
      44.0377124,
      32.6198761
     ],
     [
      44.0380261,
      32.620205
     ]
    ]
   }
  },
  {
   "type": "Feature",
   "properties": {
    "kind": "highway",
    "name": "",
    "highway": "secondary",
    "lanes": "",
    "surface": "",
    "source": "OpenStreetMap"
   },
   "geometry": {
    "type": "LineString",
    "coordinates": [
     [
      44.0380258,
      32.6208114
     ],
     [
      44.0380845,
      32.6207695
     ],
     [
      44.0381458,
      32.6207309
     ],
     [
      44.0382103,
      32.6206963
     ],
     [
      44.0382777,
      32.6206658
     ],
     [
      44.0383476,
      32.6206396
     ],
     [
      44.0384197,
      32.6206179
     ]
    ]
   }
  },
  {
   "type": "Feature",
   "properties": {
    "kind": "highway",
    "name": "",
    "highway": "secondary_link",
    "lanes": "",
    "surface": "",
    "source": "OpenStreetMap"
   },
   "geometry": {
    "type": "LineString",
    "coordinates": [
     [
      44.0382005,
      32.620388
     ],
     [
      44.0381853,
      32.6204755
     ],
     [
      44.0381582,
      32.6205634
     ],
     [
      44.0381224,
      32.6206491
     ],
     [
      44.0380782,
      32.620732
     ],
     [
      44.0380258,
      32.6208114
     ]
    ]
   }
  },
  {
   "type": "Feature",
   "properties": {
    "kind": "highway",
    "name": "",
    "highway": "tertiary",
    "lanes": "",
    "surface": "",
    "source": "OpenStreetMap"
   },
   "geometry": {
    "type": "LineString",
    "coordinates": [
     [
      44.0407806,
      32.6208877
     ],
     [
      44.0408346,
      32.6210072
     ],
     [
      44.0409126,
      32.6211169
     ],
     [
      44.0410123,
      32.6212132
     ],
     [
      44.0411306,
      32.6212933
     ]
    ]
   }
  },
  {
   "type": "Feature",
   "properties": {
    "kind": "highway",
    "name": "",
    "highway": "tertiary",
    "lanes": "",
    "surface": "",
    "source": "OpenStreetMap"
   },
   "geometry": {
    "type": "LineString",
    "coordinates": [
     [
      44.0405385,
      32.6211897
     ],
     [
      44.0406248,
      32.6211585
     ],
     [
      44.0406972,
      32.621108
     ],
     [
      44.0407496,
      32.6210424
     ],
     [
      44.0407779,
      32.620967
     ],
     [
      44.0407806,
      32.6208877
     ]
    ]
   }
  },
  {
   "type": "Feature",
   "properties": {
    "kind": "highway",
    "name": "",
    "highway": "living_street",
    "lanes": "",
    "surface": "",
    "source": "OpenStreetMap"
   },
   "geometry": {
    "type": "LineString",
    "coordinates": [
     [
      44.0395179,
      32.6194561
     ],
     [
      44.0392813,
      32.6193416
     ],
     [
      44.039018,
      32.619221
     ]
    ]
   }
  },
  {
   "type": "Feature",
   "properties": {
    "kind": "highway",
    "name": "",
    "highway": "footway",
    "lanes": "",
    "surface": "",
    "source": "OpenStreetMap"
   },
   "geometry": {
    "type": "LineString",
    "coordinates": [
     [
      44.0386697,
      32.6187475
     ],
     [
      44.0385676,
      32.6185625
     ]
    ]
   }
  },
  {
   "type": "Feature",
   "properties": {
    "kind": "highway",
    "name": "",
    "highway": "tertiary",
    "lanes": "",
    "surface": "",
    "source": "OpenStreetMap"
   },
   "geometry": {
    "type": "LineString",
    "coordinates": [
     [
      44.0407806,
      32.6208877
     ],
     [
      44.0405488,
      32.6200942
     ],
     [
      44.0403524,
      32.619385
     ],
     [
      44.0401856,
      32.6187519
     ],
     [
      44.0401229,
      32.6185439
     ],
     [
      44.0400621,
      32.618342
     ],
     [
      44.0400476,
      32.6182924
     ],
     [
      44.0399989,
      32.6181255
     ],
     [
      44.0398014,
      32.617748
     ],
     [
      44.0397314,
      32.6176308
     ]
    ]
   }
  },
  {
   "type": "Feature",
   "properties": {
    "kind": "highway",
    "name": "شارع باب بغداد",
    "highway": "secondary",
    "lanes": "1",
    "surface": "",
    "source": "OpenStreetMap"
   },
   "geometry": {
    "type": "LineString",
    "coordinates": [
     [
      44.0384197,
      32.6206179
     ],
     [
      44.038465,
      32.6206075
     ],
     [
      44.0385114,
      32.6206012
     ],
     [
      44.0385583,
      32.6205991
     ],
     [
      44.0386052,
      32.620601
     ],
     [
      44.0386515,
      32.6206072
     ],
     [
      44.0386969,
      32.6206174
     ],
     [
      44.0387408,
      32.6206315
     ],
     [
      44.0387826,
      32.6206495
     ]
    ]
   }
  },
  {
   "type": "Feature",
   "properties": {
    "kind": "highway",
    "name": "شارع باب بغداد",
    "highway": "secondary",
    "lanes": "1",
    "surface": "",
    "source": "OpenStreetMap"
   },
   "geometry": {
    "type": "LineString",
    "coordinates": [
     [
      44.0387826,
      32.6206495
     ],
     [
      44.0389851,
      32.6207407
     ],
     [
      44.0395752,
      32.6210068
     ]
    ]
   }
  },
  {
   "type": "Feature",
   "properties": {
    "kind": "highway",
    "name": "",
    "highway": "secondary",
    "lanes": "",
    "surface": "",
    "source": "OpenStreetMap"
   },
   "geometry": {
    "type": "LineString",
    "coordinates": [
     [
      44.0380258,
      32.6208114
     ],
     [
      44.0379627,
      32.6208674
     ],
     [
      44.037905,
      32.6209277
     ],
     [
      44.0378541,
      32.6209922
     ],
     [
      44.0378105,
      32.6210604
     ],
     [
      44.0377746,
      32.6211317
     ]
    ]
   }
  },
  {
   "type": "Feature",
   "properties": {
    "kind": "highway",
    "name": "",
    "highway": "footway",
    "lanes": "",
    "surface": "",
    "source": "OpenStreetMap"
   },
   "geometry": {
    "type": "LineString",
    "coordinates": [
     [
      44.0385676,
      32.6185625
     ],
     [
      44.0385206,
      32.6185275
     ],
     [
      44.0384522,
      32.6185342
     ],
     [
      44.0375875,
      32.6187536
     ]
    ]
   }
  },
  {
   "type": "Feature",
   "properties": {
    "kind": "highway",
    "name": "",
    "highway": "living_street",
    "lanes": "",
    "surface": "",
    "source": "OpenStreetMap"
   },
   "geometry": {
    "type": "LineString",
    "coordinates": [
     [
      44.0383498,
      32.6191985
     ],
     [
      44.0386697,
      32.6187475
     ],
     [
      44.0388556,
      32.6184859
     ],
     [
      44.0385946,
      32.6180286
     ]
    ]
   }
  },
  {
   "type": "Feature",
   "properties": {
    "kind": "highway",
    "name": "",
    "highway": "service",
    "lanes": "",
    "surface": "",
    "source": "OpenStreetMap"
   },
   "geometry": {
    "type": "LineString",
    "coordinates": [
     [
      44.0399221,
      32.6201834
     ],
     [
      44.0397584,
      32.6205178
     ],
     [
      44.0395752,
      32.6210068
     ]
    ]
   }
  },
  {
   "type": "Feature",
   "properties": {
    "kind": "highway",
    "name": "شارع باب بغداد",
    "highway": "trunk_link",
    "lanes": "",
    "surface": "asphalt",
    "source": "OpenStreetMap"
   },
   "geometry": {
    "type": "LineString",
    "coordinates": [
     [
      44.03881,
      32.6212966
     ],
     [
      44.0385286,
      32.6207271
     ],
     [
      44.0384197,
      32.6206179
     ]
    ]
   }
  },
  {
   "type": "Feature",
   "properties": {
    "kind": "highway",
    "name": "",
    "highway": "service",
    "lanes": "",
    "surface": "",
    "source": "OpenStreetMap"
   },
   "geometry": {
    "type": "LineString",
    "coordinates": [
     [
      44.0397584,
      32.6205178
     ],
     [
      44.0398228,
      32.6205358
     ],
     [
      44.0398711,
      32.6205607
     ],
     [
      44.0398872,
      32.6205901
     ],
     [
      44.0398282,
      32.6207459
     ]
    ]
   }
  },
  {
   "type": "Feature",
   "properties": {
    "kind": "highway",
    "name": "",
    "highway": "service",
    "lanes": "",
    "surface": "",
    "source": "OpenStreetMap"
   },
   "geometry": {
    "type": "LineString",
    "coordinates": [
     [
      44.0382658,
      32.6208349
     ],
     [
      44.0384351,
      32.6210482
     ]
    ]
   }
  },
  {
   "type": "Feature",
   "properties": {
    "kind": "highway",
    "name": "",
    "highway": "service",
    "lanes": "",
    "surface": "",
    "source": "OpenStreetMap"
   },
   "geometry": {
    "type": "LineString",
    "coordinates": [
     [
      44.0418613,
      32.6188031
     ],
     [
      44.0424445,
      32.6187784
     ]
    ]
   }
  },
  {
   "type": "Feature",
   "properties": {
    "kind": "highway",
    "name": "",
    "highway": "service",
    "lanes": "",
    "surface": "",
    "source": "OpenStreetMap"
   },
   "geometry": {
    "type": "LineString",
    "coordinates": [
     [
      44.0414053,
      32.6193204
     ],
     [
      44.0411317,
      32.619343
     ],
     [
      44.0410727,
      32.6193249
     ],
     [
      44.0409869,
      32.6193024
     ],
     [
      44.0408206,
      32.6193069
     ],
     [
      44.0403524,
      32.619385
     ]
    ]
   }
  },
  {
   "type": "Feature",
   "properties": {
    "kind": "highway",
    "name": "",
    "highway": "service",
    "lanes": "",
    "surface": "",
    "source": "OpenStreetMap"
   },
   "geometry": {
    "type": "LineString",
    "coordinates": [
     [
      44.0423655,
      32.6195405
     ],
     [
      44.0416392,
      32.6196388
     ],
     [
      44.0406907,
      32.6197507
     ]
    ]
   }
  },
  {
   "type": "Feature",
   "properties": {
    "kind": "highway",
    "name": "",
    "highway": "living_street",
    "lanes": "",
    "surface": "",
    "source": "OpenStreetMap"
   },
   "geometry": {
    "type": "LineString",
    "coordinates": [
     [
      44.0377124,
      32.6198761
     ],
     [
      44.0381217,
      32.619601
     ]
    ]
   }
  },
  {
   "type": "Feature",
   "properties": {
    "kind": "highway",
    "name": "",
    "highway": "footway",
    "lanes": "",
    "surface": "",
    "source": "OpenStreetMap"
   },
   "geometry": {
    "type": "LineString",
    "coordinates": [
     [
      44.0378682,
      32.6173892
     ],
     [
      44.0379116,
      32.6175454
     ],
     [
      44.0379846,
      32.6175888
     ],
     [
      44.0379202,
      32.6176574
     ],
     [
      44.0379674,
      32.6177008
     ],
     [
      44.0380532,
      32.6177008
     ],
     [
      44.0381307,
      32.6178119
     ],
     [
      44.0383185,
      32.6181119
     ]
    ]
   }
  },
  {
   "type": "Feature",
   "properties": {
    "kind": "highway",
    "name": "شارع الحوراء",
    "highway": "tertiary",
    "lanes": "2",
    "surface": "asphalt",
    "source": "OpenStreetMap"
   },
   "geometry": {
    "type": "LineString",
    "coordinates": [
     [
      44.0387826,
      32.6206495
     ],
     [
      44.0384934,
      32.6201907
     ]
    ]
   }
  },
  {
   "type": "Feature",
   "properties": {
    "kind": "highway",
    "name": "",
    "highway": "living_street",
    "lanes": "",
    "surface": "",
    "source": "OpenStreetMap"
   },
   "geometry": {
    "type": "LineString",
    "coordinates": [
     [
      44.0383911,
      32.6200285
     ],
     [
      44.038201,
      32.620118
     ],
     [
      44.0380261,
      32.620205
     ]
    ]
   }
  },
  {
   "type": "Feature",
   "properties": {
    "kind": "highway",
    "name": "",
    "highway": "living_street",
    "lanes": "",
    "surface": "",
    "source": "OpenStreetMap"
   },
   "geometry": {
    "type": "LineString",
    "coordinates": [
     [
      44.0394271,
      32.6185321
     ],
     [
      44.0400476,
      32.6182924
     ]
    ]
   }
  },
  {
   "type": "Feature",
   "properties": {
    "kind": "highway",
    "name": "",
    "highway": "living_street",
    "lanes": "",
    "surface": "",
    "source": "OpenStreetMap"
   },
   "geometry": {
    "type": "LineString",
    "coordinates": [
     [
      44.039018,
      32.619221
     ],
     [
      44.0388101,
      32.6195941
     ],
     [
      44.0387816,
      32.6196452
     ],
     [
      44.0386275,
      32.6199172
     ],
     [
      44.0383911,
      32.6200285
     ]
    ]
   }
  },
  {
   "type": "Feature",
   "properties": {
    "kind": "highway",
    "name": "",
    "highway": "residential",
    "lanes": "",
    "surface": "",
    "source": "OpenStreetMap"
   },
   "geometry": {
    "type": "LineString",
    "coordinates": [
     [
      44.0387826,
      32.6206495
     ],
     [
      44.0387554,
      32.6203825
     ]
    ]
   }
  },
  {
   "type": "Feature",
   "properties": {
    "kind": "highway",
    "name": "",
    "highway": "living_street",
    "lanes": "",
    "surface": "",
    "source": "OpenStreetMap"
   },
   "geometry": {
    "type": "LineString",
    "coordinates": [
     [
      44.0389655,
      32.6179167
     ],
     [
      44.0394271,
      32.6185321
     ]
    ]
   }
  },
  {
   "type": "Feature",
   "properties": {
    "kind": "highway",
    "name": "",
    "highway": "service",
    "lanes": "",
    "surface": "",
    "source": "OpenStreetMap"
   },
   "geometry": {
    "type": "LineString",
    "coordinates": [
     [
      44.0401229,
      32.6185439
     ],
     [
      44.0405187,
      32.6184815
     ],
     [
      44.0407281,
      32.6184586
     ]
    ]
   }
  },
  {
   "type": "Feature",
   "properties": {
    "kind": "highway",
    "name": "",
    "highway": "service",
    "lanes": "",
    "surface": "",
    "source": "OpenStreetMap"
   },
   "geometry": {
    "type": "LineString",
    "coordinates": [
     [
      44.0414993,
      32.6183813
     ],
     [
      44.0416966,
      32.6183558
     ],
     [
      44.0415756,
      32.6180245
     ],
     [
      44.0414881,
      32.6178221
     ]
    ]
   }
  },
  {
   "type": "Feature",
   "properties": {
    "kind": "highway",
    "name": "",
    "highway": "living_street",
    "lanes": "",
    "surface": "",
    "source": "OpenStreetMap"
   },
   "geometry": {
    "type": "LineString",
    "coordinates": [
     [
      44.0403524,
      32.619385
     ],
     [
      44.0396534,
      32.6195978
     ],
     [
      44.0391915,
      32.6198322
     ]
    ]
   }
  },
  {
   "type": "Feature",
   "properties": {
    "kind": "highway",
    "name": "",
    "highway": "service",
    "lanes": "",
    "surface": "",
    "source": "OpenStreetMap"
   },
   "geometry": {
    "type": "LineString",
    "coordinates": [
     [
      44.0407281,
      32.6184586
     ],
     [
      44.0413329,
      32.618375
     ],
     [
      44.0413637,
      32.618358
     ],
     [
      44.0413718,
      32.6183433
     ],
     [
      44.041357,
      32.6182134
     ],
     [
      44.0413409,
      32.6181852
     ],
     [
      44.0413114,
      32.6181739
     ],
     [
      44.0407254,
      32.6182552
     ],
     [
      44.0406999,
      32.6182914
     ],
     [
      44.0406972,
      32.6183411
     ],
     [
      44.0407281,
      32.6184586
     ]
    ]
   }
  },
  {
   "type": "Feature",
   "properties": {
    "kind": "highway",
    "name": "",
    "highway": "service",
    "lanes": "",
    "surface": "",
    "source": "OpenStreetMap"
   },
   "geometry": {
    "type": "LineString",
    "coordinates": [
     [
      44.042377,
      32.6194564
     ],
     [
      44.0413678,
      32.6195328
     ]
    ]
   }
  },
  {
   "type": "Feature",
   "properties": {
    "kind": "highway",
    "name": "",
    "highway": "residential",
    "lanes": "",
    "surface": "",
    "source": "OpenStreetMap"
   },
   "geometry": {
    "type": "LineString",
    "coordinates": [
     [
      44.0387554,
      32.6203825
     ],
     [
      44.0387651,
      32.620434
     ],
     [
      44.0387807,
      32.6204845
     ],
     [
      44.038802,
      32.6205334
     ],
     [
      44.0388288,
      32.6205805
     ],
     [
      44.0388608,
      32.6206251
     ],
     [
      44.0388978,
      32.6206669
     ],
     [
      44.0389393,
      32.6207056
     ],
     [
      44.0389851,
      32.6207407
     ]
    ]
   }
  },
  {
   "type": "Feature",
   "properties": {
    "kind": "highway",
    "name": "",
    "highway": "tertiary_link",
    "lanes": "",
    "surface": "",
    "source": "OpenStreetMap"
   },
   "geometry": {
    "type": "LineString",
    "coordinates": [
     [
      44.0384934,
      32.6201907
     ],
     [
      44.0385721,
      32.620255
     ],
     [
      44.0386206,
      32.6202661
     ],
     [
      44.0386735,
      32.6202642
     ],
     [
      44.0387243,
      32.6202512
     ],
     [
      44.0387641,
      32.6202209
     ]
    ]
   }
  },
  {
   "type": "Feature",
   "properties": {
    "kind": "highway",
    "name": "شارع الحوراء",
    "highway": "tertiary",
    "lanes": "2",
    "surface": "asphalt",
    "source": "OpenStreetMap"
   },
   "geometry": {
    "type": "LineString",
    "coordinates": [
     [
      44.0384934,
      32.6201907
     ],
     [
      44.0383911,
      32.6200285
     ]
    ]
   }
  },
  {
   "type": "Feature",
   "properties": {
    "kind": "highway",
    "name": "شارع باب بغداد",
    "highway": "tertiary",
    "lanes": "2",
    "surface": "asphalt",
    "source": "OpenStreetMap"
   },
   "geometry": {
    "type": "LineString",
    "coordinates": [
     [
      44.0382005,
      32.620388
     ],
     [
      44.0384197,
      32.6206179
     ]
    ]
   }
  },
  {
   "type": "Feature",
   "properties": {
    "kind": "highway",
    "name": "شارع باب بغداد",
    "highway": "tertiary",
    "lanes": "2",
    "surface": "asphalt",
    "source": "OpenStreetMap"
   },
   "geometry": {
    "type": "LineString",
    "coordinates": [
     [
      44.0380261,
      32.620205
     ],
     [
      44.0382005,
      32.620388
     ]
    ]
   }
  },
  {
   "type": "Feature",
   "properties": {
    "kind": "highway",
    "name": "",
    "highway": "residential",
    "lanes": "",
    "surface": "",
    "source": "OpenStreetMap"
   },
   "geometry": {
    "type": "LineString",
    "coordinates": [
     [
      44.0387641,
      32.6202209
     ],
     [
      44.038759,
      32.6202402
     ],
     [
      44.0387516,
      32.6203113
     ],
     [
      44.0387554,
      32.6203825
     ]
    ]
   }
  },
  {
   "type": "Feature",
   "properties": {
    "kind": "highway",
    "name": "شارع الحوراء",
    "highway": "tertiary",
    "lanes": "2",
    "surface": "asphalt",
    "source": "OpenStreetMap"
   },
   "geometry": {
    "type": "LineString",
    "coordinates": [
     [
      44.0383911,
      32.6200285
     ],
     [
      44.0381217,
      32.619601
     ],
     [
      44.037921,
      32.6192827
     ],
     [
      44.0377117,
      32.6189506
     ]
    ]
   }
  },
  {
   "type": "Feature",
   "properties": {
    "kind": "building",
    "name": "",
    "building": "residential",
    "floors": "",
    "source": "OpenStreetMap"
   },
   "geometry": {
    "type": "Polygon",
    "coordinates": [
     [
      [
       44.0390443,
       32.6199762
      ],
      [
       44.0391239,
       32.6200924
      ],
      [
       44.0389036,
       32.6201994
      ],
      [
       44.038824,
       32.6200832
      ],
      [
       44.0390443,
       32.6199762
      ]
     ]
    ]
   }
  },
  {
   "type": "Feature",
   "properties": {
    "kind": "building",
    "name": "",
    "building": "yes",
    "floors": "",
    "source": "OpenStreetMap"
   },
   "geometry": {
    "type": "Polygon",
    "coordinates": [
     [
      [
       44.0393073,
       32.6199755
      ],
      [
       44.0391439,
       32.6200601
      ],
      [
       44.0390608,
       32.6199647
      ],
      [
       44.0392328,
       32.6198741
      ],
      [
       44.0393073,
       32.6199755
      ]
     ]
    ]
   }
  },
  {
   "type": "Feature",
   "properties": {
    "kind": "building",
    "name": "",
    "building": "yes",
    "floors": "",
    "source": "OpenStreetMap"
   },
   "geometry": {
    "type": "Polygon",
    "coordinates": [
     [
      [
       44.0394997,
       32.6198684
      ],
      [
       44.0393184,
       32.619965
      ],
      [
       44.039248,
       32.6198673
      ],
      [
       44.0394202,
       32.619764
      ],
      [
       44.0394997,
       32.6198684
      ]
     ]
    ]
   }
  },
  {
   "type": "Feature",
   "properties": {
    "kind": "building",
    "name": "",
    "building": "yes",
    "floors": "",
    "source": "OpenStreetMap"
   },
   "geometry": {
    "type": "Polygon",
    "coordinates": [
     [
      [
       44.0397276,
       32.6197295
      ],
      [
       44.039521,
       32.6198532
      ],
      [
       44.0394239,
       32.6197536
      ],
      [
       44.0396367,
       32.6196299
      ],
      [
       44.0397276,
       32.6197295
      ]
     ]
    ]
   }
  },
  {
   "type": "Feature",
   "properties": {
    "kind": "building",
    "name": "",
    "building": "yes",
    "floors": "",
    "source": "OpenStreetMap"
   },
   "geometry": {
    "type": "Polygon",
    "coordinates": [
     [
      [
       44.0388882,
       32.6196655
      ],
      [
       44.0388521,
       32.6197294
      ],
      [
       44.0389007,
       32.6197483
      ],
      [
       44.0389405,
       32.6196875
      ],
      [
       44.0388882,
       32.6196655
      ]
     ]
    ]
   }
  },
  {
   "type": "Feature",
   "properties": {
    "kind": "building",
    "name": "",
    "building": "yes",
    "floors": "",
    "source": "OpenStreetMap"
   },
   "geometry": {
    "type": "Polygon",
    "coordinates": [
     [
      [
       44.0388521,
       32.6196739
      ],
      [
       44.0388086,
       32.619743
      ],
      [
       44.0387576,
       32.6197179
      ],
      [
       44.0387937,
       32.6196519
      ],
      [
       44.0388521,
       32.6196739
      ]
     ]
    ]
   }
  },
  {
   "type": "Feature",
   "properties": {
    "kind": "building",
    "name": "",
    "building": "yes",
    "floors": "",
    "source": "OpenStreetMap"
   },
   "geometry": {
    "type": "Polygon",
    "coordinates": [
     [
      [
       44.0389293,
       32.6197776
      ],
      [
       44.0388795,
       32.6197504
      ],
      [
       44.0388148,
       32.6198541
      ],
      [
       44.0388658,
       32.6198793
      ],
      [
       44.0389293,
       32.6197776
      ]
     ]
    ]
   }
  },
  {
   "type": "Feature",
   "properties": {
    "kind": "building",
    "name": "",
    "building": "yes",
    "floors": "",
    "source": "OpenStreetMap"
   },
   "geometry": {
    "type": "Polygon",
    "coordinates": [
     [
      [
       44.0388024,
       32.6197671
      ],
      [
       44.0387551,
       32.6197451
      ],
      [
       44.0387302,
       32.6197829
      ],
      [
       44.0387862,
       32.6198028
      ],
      [
       44.0388024,
       32.6197671
      ]
     ]
    ]
   }
  },
  {
   "type": "Feature",
   "properties": {
    "kind": "building",
    "name": "",
    "building": "yes",
    "floors": "",
    "source": "OpenStreetMap"
   },
   "geometry": {
    "type": "Polygon",
    "coordinates": [
     [
      [
       44.0387874,
       32.6198227
      ],
      [
       44.0387339,
       32.6197944
      ],
      [
       44.0386904,
       32.6198583
      ],
      [
       44.0387514,
       32.6198877
      ],
      [
       44.0387874,
       32.6198227
      ]
     ]
    ]
   }
  },
  {
   "type": "Feature",
   "properties": {
    "kind": "building",
    "name": "",
    "building": "yes",
    "floors": "",
    "source": "OpenStreetMap"
   },
   "geometry": {
    "type": "Polygon",
    "coordinates": [
     [
      [
       44.0388546,
       32.6198877
      ],
      [
       44.0388049,
       32.6198688
      ],
      [
       44.0387675,
       32.6199338
      ],
      [
       44.0388235,
       32.6199537
      ],
      [
       44.0388546,
       32.6198877
      ]
     ]
    ]
   }
  },
  {
   "type": "Feature",
   "properties": {
    "kind": "building",
    "name": "",
    "building": "yes",
    "floors": "",
    "source": "OpenStreetMap"
   },
   "geometry": {
    "type": "Polygon",
    "coordinates": [
     [
      [
       44.0387476,
       32.6198992
      ],
      [
       44.0386804,
       32.6198657
      ],
      [
       44.0386456,
       32.6199443
      ],
      [
       44.0386207,
       32.619981
      ],
      [
       44.0385684,
       32.6200271
      ],
      [
       44.0386344,
       32.6200742
      ],
      [
       44.0386978,
       32.6200218
      ],
      [
       44.0386605,
       32.6199925
      ],
      [
       44.0386742,
       32.6199642
      ],
      [
       44.0386954,
       32.619982
      ],
      [
       44.0387165,
       32.6199495
      ],
      [
       44.0386891,
       32.6199327
      ],
      [
       44.0386978,
       32.6199191
      ],
      [
       44.0387339,
       32.619938
      ],
      [
       44.0387476,
       32.6198992
      ]
     ]
    ]
   }
  },
  {
   "type": "Feature",
   "properties": {
    "kind": "building",
    "name": "",
    "building": "yes",
    "floors": "",
    "source": "OpenStreetMap"
   },
   "geometry": {
    "type": "Polygon",
    "coordinates": [
     [
      [
       44.038775,
       32.6200302
      ],
      [
       44.038729,
       32.6200103
      ],
      [
       44.0387762,
       32.6199443
      ],
      [
       44.0388173,
       32.6199631
      ],
      [
       44.038775,
       32.6200302
      ]
     ]
    ]
   }
  },
  {
   "type": "Feature",
   "properties": {
    "kind": "building",
    "name": "",
    "building": "yes",
    "floors": "",
    "source": "OpenStreetMap"
   },
   "geometry": {
    "type": "Polygon",
    "coordinates": [
     [
      [
       44.0387314,
       32.6201204
      ],
      [
       44.0386954,
       32.6201759
      ],
      [
       44.0386518,
       32.6201581
      ],
      [
       44.038658,
       32.6201371
      ],
      [
       44.0386058,
       32.6201025
      ],
      [
       44.038617,
       32.6200795
      ],
      [
       44.0386705,
       32.620112
      ],
      [
       44.0386842,
       32.6201004
      ],
      [
       44.0387314,
       32.6201204
      ]
     ]
    ]
   }
  },
  {
   "type": "Feature",
   "properties": {
    "kind": "building",
    "name": "",
    "building": "residential",
    "floors": "",
    "source": "OpenStreetMap"
   },
   "geometry": {
    "type": "Polygon",
    "coordinates": [
     [
      [
       44.0395413,
       32.6195934
      ],
      [
       44.0392073,
       32.6198083
      ],
      [
       44.0390488,
       32.6196898
      ],
      [
       44.0390927,
       32.6196453
      ],
      [
       44.0391514,
       32.6196719
      ],
      [
       44.039183,
       32.6196417
      ],
      [
       44.0390067,
       32.6195354
      ],
      [
       44.0391572,
       32.6193543
      ],
      [
       44.0393105,
       32.6194497
      ],
      [
       44.0393249,
       32.6194364
      ],
      [
       44.0394281,
       32.6195004
      ],
      [
       44.0394696,
       32.6194654
      ],
      [
       44.0395384,
       32.6195209
      ],
      [
       44.0395069,
       32.6195511
      ],
      [
       44.0395413,
       32.6195934
      ]
     ]
    ]
   }
  },
  {
   "type": "Feature",
   "properties": {
    "kind": "building",
    "name": "",
    "building": "residential",
    "floors": "",
    "source": "OpenStreetMap"
   },
   "geometry": {
    "type": "Polygon",
    "coordinates": [
     [
      [
       44.0388388,
       32.6194158
      ],
      [
       44.038745,
       32.6195642
      ],
      [
       44.0384561,
       32.6195427
      ],
      [
       44.0384656,
       32.6193953
      ],
      [
       44.0388388,
       32.6194158
      ]
     ]
    ]
   }
  },
  {
   "type": "Feature",
   "properties": {
    "kind": "building",
    "name": "",
    "building": "residential",
    "floors": "",
    "source": "OpenStreetMap"
   },
   "geometry": {
    "type": "Polygon",
    "coordinates": [
     [
      [
       44.0389392,
       32.6192335
      ],
      [
       44.0388374,
       32.6193977
      ],
      [
       44.0384834,
       32.6193808
      ],
      [
       44.0384662,
       32.6192021
      ],
      [
       44.0386984,
       32.6192093
      ],
      [
       44.0389392,
       32.6192335
      ]
     ]
    ]
   }
  },
  {
   "type": "Feature",
   "properties": {
    "kind": "building",
    "name": "",
    "building": "residential",
    "floors": "",
    "source": "OpenStreetMap"
   },
   "geometry": {
    "type": "Polygon",
    "coordinates": [
     [
      [
       44.0384418,
       32.6192081
      ],
      [
       44.0384504,
       32.6193747
      ],
      [
       44.0380648,
       32.6194592
      ],
      [
       44.0379559,
       32.6192878
      ],
      [
       44.0381766,
       32.6192407
      ],
      [
       44.0384418,
       32.6192081
      ]
     ]
    ]
   }
  },
  {
   "type": "Feature",
   "properties": {
    "kind": "building",
    "name": "",
    "building": "yes",
    "floors": "",
    "source": "OpenStreetMap"
   },
   "geometry": {
    "type": "Polygon",
    "coordinates": [
     [
      [
       44.038714,
       32.6196002
      ],
      [
       44.0385457,
       32.619914
      ],
      [
       44.0384811,
       32.6199419
      ],
      [
       44.0383654,
       32.6198976
      ],
      [
       44.0383323,
       32.6198368
      ],
      [
       44.0382722,
       32.6197989
      ],
      [
       44.0382677,
       32.6197559
      ],
      [
       44.0381926,
       32.6196356
      ],
      [
       44.0382241,
       32.6195812
      ],
      [
       44.0383473,
       32.6195736
      ],
      [
       44.0385051,
       32.6195723
      ],
      [
       44.038714,
       32.6196002
      ]
     ]
    ]
   }
  },
  {
   "type": "Feature",
   "properties": {
    "kind": "building",
    "name": "",
    "building": "yes",
    "floors": "",
    "source": "OpenStreetMap"
   },
   "geometry": {
    "type": "Polygon",
    "coordinates": [
     [
      [
       44.0393211,
       32.6201014
      ],
      [
       44.0391232,
       32.6202269
      ],
      [
       44.0390702,
       32.6201509
      ],
      [
       44.0392523,
       32.6200301
      ],
      [
       44.0393211,
       32.6201014
      ]
     ]
    ]
   }
  },
  {
   "type": "Feature",
   "properties": {
    "kind": "building",
    "name": "",
    "building": "yes",
    "floors": "",
    "source": "OpenStreetMap"
   },
   "geometry": {
    "type": "Polygon",
    "coordinates": [
     [
      [
       44.0394529,
       32.6199287
      ],
      [
       44.0395461,
       32.6200881
      ],
      [
       44.0396249,
       32.6200627
      ],
      [
       44.0395275,
       32.6198804
      ],
      [
       44.0394529,
       32.6199287
      ]
     ]
    ]
   }
  },
  {
   "type": "Feature",
   "properties": {
    "kind": "building",
    "name": "",
    "building": "yes",
    "floors": "",
    "source": "OpenStreetMap"
   },
   "geometry": {
    "type": "Polygon",
    "coordinates": [
     [
      [
       44.0396522,
       32.6198744
      ],
      [
       44.0395819,
       32.6199154
      ],
      [
       44.0395461,
       32.6198575
      ],
      [
       44.0395934,
       32.6198237
      ],
      [
       44.0396049,
       32.6198406
      ],
      [
       44.0396722,
       32.6198007
      ],
      [
       44.0397425,
       32.6198744
      ],
      [
       44.0396851,
       32.619907
      ],
      [
       44.0396522,
       32.6198744
      ]
     ]
    ]
   }
  },
  {
   "type": "Feature",
   "properties": {
    "kind": "building",
    "name": "",
    "building": "residential",
    "floors": "",
    "source": "OpenStreetMap"
   },
   "geometry": {
    "type": "Polygon",
    "coordinates": [
     [
      [
       44.0381443,
       32.61978
      ],
      [
       44.0382728,
       32.6199654
      ],
      [
       44.0380554,
       32.6200829
      ],
      [
       44.0379077,
       32.6199309
      ],
      [
       44.0381443,
       32.61978
      ]
     ]
    ]
   }
  },
  {
   "type": "Feature",
   "properties": {
    "kind": "building",
    "name": "",
    "building": "residential",
    "floors": "",
    "source": "OpenStreetMap"
   },
   "geometry": {
    "type": "Polygon",
    "coordinates": [
     [
      [
       44.0381293,
       32.6197704
      ],
      [
       44.0380549,
       32.6196655
      ],
      [
       44.0378109,
       32.6198288
      ],
      [
       44.0379078,
       32.6199191
      ],
      [
       44.0381293,
       32.6197704
      ]
     ]
    ]
   }
  },
  {
   "type": "Feature",
   "properties": {
    "kind": "building",
    "name": "",
    "building": "residential",
    "floors": "",
    "source": "OpenStreetMap"
   },
   "geometry": {
    "type": "Polygon",
    "coordinates": [
     [
      [
       44.0380237,
       32.6196422
      ],
      [
       44.0377503,
       32.6198273
      ],
      [
       44.0376309,
       32.6197151
      ],
      [
       44.0379337,
       32.619511
      ],
      [
       44.0380237,
       32.6196422
      ]
     ]
    ]
   }
  },
  {
   "type": "Feature",
   "properties": {
    "kind": "building",
    "name": "",
    "building": "yes",
    "floors": "",
    "source": "OpenStreetMap"
   },
   "geometry": {
    "type": "Polygon",
    "coordinates": [
     [
      [
       44.0391079,
       32.6203167
      ],
      [
       44.0392053,
       32.6203445
      ],
      [
       44.0391888,
       32.6204001
      ],
      [
       44.0392136,
       32.6204043
      ],
      [
       44.039202,
       32.620428
      ],
      [
       44.0392235,
       32.6204349
      ],
      [
       44.0392037,
       32.6204933
      ],
      [
       44.0391178,
       32.6204697
      ],
      [
       44.0390947,
       32.6205239
      ],
      [
       44.0394035,
       32.6206046
      ],
      [
       44.0395521,
       32.6202221
      ],
      [
       44.0396396,
       32.6202486
      ],
      [
       44.0394712,
       32.620695
      ],
      [
       44.0390221,
       32.6206129
      ],
      [
       44.0390765,
       32.6204585
      ],
      [
       44.0389709,
       32.6204363
      ],
      [
       44.0390369,
       32.6202986
      ],
      [
       44.0391079,
       32.6203167
      ]
     ]
    ]
   }
  },
  {
   "type": "Feature",
   "properties": {
    "kind": "building",
    "name": "",
    "building": "yes",
    "floors": "",
    "source": "OpenStreetMap"
   },
   "geometry": {
    "type": "Polygon",
    "coordinates": [
     [
      [
       44.0390919,
       32.6207085
      ],
      [
       44.038996,
       32.6206833
      ],
      [
       44.0390208,
       32.6206234
      ],
      [
       44.0391135,
       32.6206425
      ],
      [
       44.0390919,
       32.6207085
      ]
     ]
    ]
   }
  },
  {
   "type": "Feature",
   "properties": {
    "kind": "building",
    "name": "",
    "building": "yes",
    "floors": "",
    "source": "OpenStreetMap"
   },
   "geometry": {
    "type": "Polygon",
    "coordinates": [
     [
      [
       44.0391599,
       32.6207172
      ],
      [
       44.0391001,
       32.6207042
      ],
      [
       44.0391207,
       32.6206434
      ],
      [
       44.0391805,
       32.6206556
      ],
      [
       44.0391599,
       32.6207172
      ]
     ]
    ]
   }
  },
  {
   "type": "Feature",
   "properties": {
    "kind": "building",
    "name": "",
    "building": "yes",
    "floors": "",
    "source": "OpenStreetMap"
   },
   "geometry": {
    "type": "Polygon",
    "coordinates": [
     [
      [
       44.0392578,
       32.6207441
      ],
      [
       44.0391681,
       32.6207172
      ],
      [
       44.0391918,
       32.6206556
      ],
      [
       44.0392939,
       32.6206781
      ],
      [
       44.0392578,
       32.6207441
      ]
     ]
    ]
   }
  },
  {
   "type": "Feature",
   "properties": {
    "kind": "building",
    "name": "",
    "building": "residential",
    "floors": "",
    "source": "OpenStreetMap"
   },
   "geometry": {
    "type": "Polygon",
    "coordinates": [
     [
      [
       44.0396299,
       32.6204207
      ],
      [
       44.0397519,
       32.6204731
      ],
      [
       44.0396747,
       32.6206136
      ],
      [
       44.0395428,
       32.620579
      ],
      [
       44.0396299,
       32.6204207
      ]
     ]
    ]
   }
  },
  {
   "type": "Feature",
   "properties": {
    "kind": "building",
    "name": "",
    "building": "residential",
    "floors": "",
    "source": "OpenStreetMap"
   },
   "geometry": {
    "type": "Polygon",
    "coordinates": [
     [
      [
       44.0398788,
       32.6201587
      ],
      [
       44.0397767,
       32.6204123
      ],
      [
       44.0396523,
       32.6203893
      ],
      [
       44.0397556,
       32.6201251
      ],
      [
       44.0398788,
       32.6201587
      ]
     ]
    ]
   }
  },
  {
   "type": "Feature",
   "properties": {
    "kind": "building",
    "name": "",
    "building": "yes",
    "floors": "",
    "source": "OpenStreetMap"
   },
   "geometry": {
    "type": "Polygon",
    "coordinates": [
     [
      [
       44.0397382,
       32.6201335
      ],
      [
       44.0397021,
       32.6202394
      ],
      [
       44.0396262,
       32.6202258
      ],
      [
       44.0396598,
       32.6201168
      ],
      [
       44.0397382,
       32.6201335
      ]
     ]
    ]
   }
  },
  {
   "type": "Feature",
   "properties": {
    "kind": "building",
    "name": "",
    "building": "yes",
    "floors": "",
    "source": "OpenStreetMap"
   },
   "geometry": {
    "type": "Polygon",
    "coordinates": [
     [
      [
       44.039635,
       32.6206563
      ],
      [
       44.0395516,
       32.6208498
      ],
      [
       44.0394409,
       32.6208141
      ],
      [
       44.0394436,
       32.6207715
      ],
      [
       44.0393506,
       32.6207542
      ],
      [
       44.0393766,
       32.6206966
      ],
      [
       44.0394778,
       32.6207231
      ],
      [
       44.0394901,
       32.6206978
      ],
      [
       44.0395461,
       32.6207196
      ],
      [
       44.0395831,
       32.6206379
      ],
      [
       44.039635,
       32.6206563
      ]
     ]
    ]
   }
  },
  {
   "type": "Feature",
   "properties": {
    "kind": "highway",
    "name": "",
    "highway": "living_street",
    "lanes": "",
    "surface": "",
    "source": "OpenStreetMap"
   },
   "geometry": {
    "type": "LineString",
    "coordinates": [
     [
      44.0388101,
      32.6195941
     ],
     [
      44.0390183,
      32.6196907
     ],
     [
      44.0391915,
      32.6198322
     ]
    ]
   }
  },
  {
   "type": "Feature",
   "properties": {
    "kind": "highway",
    "name": "",
    "highway": "living_street",
    "lanes": "",
    "surface": "",
    "source": "OpenStreetMap"
   },
   "geometry": {
    "type": "LineString",
    "coordinates": [
     [
      44.0388773,
      32.6200048
     ],
     [
      44.0391915,
      32.6198322
     ]
    ]
   }
  },
  {
   "type": "Feature",
   "properties": {
    "kind": "highway",
    "name": "",
    "highway": "living_street",
    "lanes": "",
    "surface": "",
    "source": "OpenStreetMap"
   },
   "geometry": {
    "type": "LineString",
    "coordinates": [
     [
      44.0397361,
      32.6191674
     ],
     [
      44.0391915,
      32.6189288
     ]
    ]
   }
  }
 ]
}